{
  "type": "FeatureCollection",
  "features": [
    {
      "type": "Feature",
      "properties": {
        "norad_id": 37693,
        "name": "FENGYUN 1C DEB",
        "group": "fengyun-1c-debris",
        "lat": -76.7533639925379,
        "lon": 22.026367050862312,
        "alt_km": 923.5894246095695,
        "timestamp": "2025-12-07T11:27:50.291868+00:00",
        "meta_object_name": "FENGYUN 1C DEB",
        "meta_object_id": "1999-025ELJ",
        "meta_epoch": "2025-12-06T17:55:30.127008",
        "meta_mean_motion": 14.0846487,
        "meta_eccentricity": 0.00725318,
        "meta_inclination": 98.6978,
        "meta_ra_of_asc_node": 340.7595,
        "meta_arg_of_pericenter": 91.6733,
        "meta_mean_anomaly": 85.1425,
        "meta_ephemeris_type": 0,
        "meta_classification_type": "U",
        "meta_norad_cat_id": 37693,
        "meta_element_set_no": 999,
        "meta_rev_at_epoch": 62064,
        "meta_bstar": 0.00098860763,
        "meta_mean_motion_dot": 1.695e-05,
        "meta_mean_motion_ddot": 0,
        "tle_line1": "1 37693U 99025ELJ 25340.74687647  .00001695  00000+0  98861-3 0  9991",
        "tle_line2": "2 37693  98.6978 340.7595 0072531  91.6733  85.1425 14.08464870620642"
      },
      "geometry": {
        "type": "Point",
        "coordinates": [
          22.026367050862312,
          -76.7533639925379
        ]
      }
    },
    {
      "type": "Feature",
      "properties": {
        "norad_id": 37694,
        "name": "FENGYUN 1C DEB",
        "group": "fengyun-1c-debris",
        "lat": -36.97181827652273,
        "lon": -136.7316967261257,
        "alt_km": 876.7963967065562,
        "timestamp": "2025-12-07T11:27:50.291878+00:00",
        "meta_object_name": "FENGYUN 1C DEB",
        "meta_object_id": "1999-025ELK",
        "meta_epoch": "2025-11-23T11:03:37.255104",
        "meta_mean_motion": 14.16434986,
        "meta_eccentricity": 0.01492409,
        "meta_inclination": 98.199,
        "meta_ra_of_asc_node": 36.5782,
        "meta_arg_of_pericenter": 149.1235,
        "meta_mean_anomaly": 270.2915,
        "meta_ephemeris_type": 0,
        "meta_classification_type": "U",
        "meta_norad_cat_id": 37694,
        "meta_element_set_no": 999,
        "meta_rev_at_epoch": 51431,
        "meta_bstar": 0.0018793287,
        "meta_mean_motion_dot": 4.13e-05,
        "meta_mean_motion_ddot": 0,
        "tle_line1": "1 37694U 99025ELK 25327.46084786  .00004130  00000+0  18793-2 0  9993",
        "tle_line2": "2 37694  98.1990  36.5782 0149240 149.1235 270.2915 14.16434986514319"
      },
      "geometry": {
        "type": "Point",
        "coordinates": [
          -136.7316967261257,
          -36.97181827652273
        ]
      }
    },
    {
      "type": "Feature",
      "properties": {
        "norad_id": 37695,
        "name": "FENGYUN 1C DEB",
        "group": "fengyun-1c-debris",
        "lat": 19.02282556109409,
        "lon": 22.72986623266832,
        "alt_km": 1088.125128279743,
        "timestamp": "2025-12-07T11:27:50.291888+00:00",
        "meta_object_name": "FENGYUN 1C DEB",
        "meta_object_id": "1999-025ELL",
        "meta_epoch": "2025-12-05T21:35:58.305696",
        "meta_mean_motion": 13.64964142,
        "meta_eccentricity": 0.04651514,
        "meta_inclination": 98.2113,
        "meta_ra_of_asc_node": 24.2422,
        "meta_arg_of_pericenter": 279.1549,
        "meta_mean_anomaly": 266.6228,
        "meta_ephemeris_type": 0,
        "meta_classification_type": "U",
        "meta_norad_cat_id": 37695,
        "meta_element_set_no": 999,
        "meta_rev_at_epoch": 89158,
        "meta_bstar": 0.001955193,
        "meta_mean_motion_dot": 3.282e-05,
        "meta_mean_motion_ddot": 0,
        "tle_line1": "1 37695U 99025ELL 25339.89998039  .00003282  00000+0  19552-2 0  9990",
        "tle_line2": "2 37695  98.2113  24.2422 0465151 279.1549 266.6228 13.64964142891584"
      },
      "geometry": {
        "type": "Point",
        "coordinates": [
          22.72986623266832,
          19.02282556109409
        ]
      }
    },
    {
      "type": "Feature",
      "properties": {
        "norad_id": 37704,
        "name": "FENGYUN 1C DEB",
        "group": "fengyun-1c-debris",
        "lat": -60.526752419912384,
        "lon": -19.71805251737785,
        "alt_km": 884.4642137811306,
        "timestamp": "2025-12-07T11:27:50.291899+00:00",
        "meta_object_name": "FENGYUN 1C DEB",
        "meta_object_id": "1999-025ELV",
        "meta_epoch": "2025-11-13T18:53:12.256224",
        "meta_mean_motion": 13.70394507,
        "meta_eccentricity": 0.02407203,
        "meta_inclination": 98.3154,
        "meta_ra_of_asc_node": 154.7598,
        "meta_arg_of_pericenter": 256.7939,
        "meta_mean_anomaly": 163.8462,
        "meta_ephemeris_type": 0,
        "meta_classification_type": "U",
        "meta_norad_cat_id": 37704,
        "meta_element_set_no": 999,
        "meta_rev_at_epoch": 61968,
        "meta_bstar": 0.0028357246,
        "meta_mean_motion_dot": 3.039e-05,
        "meta_mean_motion_ddot": 0,
        "tle_line1": "1 37704U 99025ELV 25317.78694741  .00003039  00000+0  28357-2 0  9991",
        "tle_line2": "2 37704  98.3154 154.7598 0240720 256.7939 163.8462 13.70394507619687"
      },
      "geometry": {
        "type": "Point",
        "coordinates": [
          -19.71805251737785,
          -60.526752419912384
        ]
      }
    },
    {
      "type": "Feature",
      "properties": {
        "norad_id": 37707,
        "name": "FENGYUN 1C DEB",
        "group": "fengyun-1c-debris",
        "lat": 24.761213864881366,
        "lon": 169.0643522539058,
        "alt_km": 743.5672900547243,
        "timestamp": "2025-12-07T11:27:50.291909+00:00",
        "meta_object_name": "FENGYUN 1C DEB",
        "meta_object_id": "1999-025ELY",
        "meta_epoch": "2025-12-06T19:04:55.100352",
        "meta_mean_motion": 14.5638067,
        "meta_eccentricity": 0.01438577,
        "meta_inclination": 100.2206,
        "meta_ra_of_asc_node": 343.4556,
        "meta_arg_of_pericenter": 43.1448,
        "meta_mean_anomaly": 133.2584,
        "meta_ephemeris_type": 0,
        "meta_classification_type": "U",
        "meta_norad_cat_id": 37707,
        "meta_element_set_no": 999,
        "meta_rev_at_epoch": 85479,
        "meta_bstar": 0.0012034333,
        "meta_mean_motion_dot": 6.077e-05,
        "meta_mean_motion_ddot": 0,
        "tle_line1": "1 37707U 99025ELY 25340.79508218  .00006077  00000+0  12034-2 0  9994",
        "tle_line2": "2 37707 100.2206 343.4556 0143857  43.1448 133.2584 14.56380670854798"
      },
      "geometry": {
        "type": "Point",
        "coordinates": [
          169.0643522539058,
          24.761213864881366
        ]
      }
    },
    {
      "type": "Feature",
      "properties": {
        "norad_id": 37712,
        "name": "FENGYUN 1C DEB",
        "group": "fengyun-1c-debris",
        "lat": 21.113343746609374,
        "lon": 116.93122388260721,
        "alt_km": 714.6696707283318,
        "timestamp": "2025-12-07T11:27:50.291920+00:00",
        "meta_object_name": "FENGYUN 1C DEB",
        "meta_object_id": "1999-025EMD",
        "meta_epoch": "2025-12-06T15:22:52.424256",
        "meta_mean_motion": 14.36406304,
        "meta_eccentricity": 0.00795018,
        "meta_inclination": 98.8181,
        "meta_ra_of_asc_node": 119.5113,
        "meta_arg_of_pericenter": 11.6426,
        "meta_mean_anomaly": 5.0659,
        "meta_ephemeris_type": 0,
        "meta_classification_type": "U",
        "meta_norad_cat_id": 37712,
        "meta_element_set_no": 999,
        "meta_rev_at_epoch": 63873,
        "meta_bstar": 0.00071767762,
        "meta_mean_motion_dot": 2.133e-05,
        "meta_mean_motion_ddot": 0,
        "tle_line1": "1 37712U 99025EMD 25340.64088454  .00002133  00000+0  71768-3 0  9998",
        "tle_line2": "2 37712  98.8181 119.5113 0079501  11.6426   5.0659 14.36406304638733"
      },
      "geometry": {
        "type": "Point",
        "coordinates": [
          116.93122388260721,
          21.113343746609374
        ]
      }
    },
    {
      "type": "Feature",
      "properties": {
        "norad_id": 37714,
        "name": "FENGYUN 1C DEB",
        "group": "fengyun-1c-debris",
        "lat": -2.6566871111818293,
        "lon": 93.45978127540494,
        "alt_km": 795.4319602312435,
        "timestamp": "2025-12-07T11:27:50.291930+00:00",
        "meta_object_name": "FENGYUN 1C DEB",
        "meta_object_id": "1999-025EMF",
        "meta_epoch": "2025-12-01T06:14:12.602976",
        "meta_mean_motion": 14.32022386,
        "meta_eccentricity": 0.0049613,
        "meta_inclination": 98.8928,
        "meta_ra_of_asc_node": 86.6726,
        "meta_arg_of_pericenter": 118.0452,
        "meta_mean_anomaly": 242.5761,
        "meta_ephemeris_type": 0,
        "meta_classification_type": "U",
        "meta_norad_cat_id": 37714,
        "meta_element_set_no": 999,
        "meta_rev_at_epoch": 57345,
        "meta_bstar": 0.0027481,
        "meta_mean_motion_dot": 7.44e-05,
        "meta_mean_motion_ddot": 0,
        "tle_line1": "1 37714U 99025EMF 25335.25986809  .00007440  00000+0  27481-2 0  9990",
        "tle_line2": "2 37714  98.8928  86.6726 0049613 118.0452 242.5761 14.32022386573459"
      },
      "geometry": {
        "type": "Point",
        "coordinates": [
          93.45978127540494,
          -2.6566871111818293
        ]
      }
    }
  ]
}